[{"OBJECT_NAME":"STARLINK-33896","OBJECT_ID":"2025-093AB","EPOCH":"2026-03-09T21:45:03.921696","MEAN_MOTION":15.27587038,"ECCENTRICITY":0.00010507,"INCLINATION":43.0003,"RA_OF_ASC_NODE":76.7988,"ARG_OF_PERICENTER":259.929,"MEAN_ANOMALY":100.1443,"EPHEMERIS_TYPE":0,"CLASSIFICATION_TYPE":"U","NORAD_CAT_ID":63861,"ELEMENT_SET_NO":999,"REV_AT_EPOCH":4778,"BSTAR":0.00069706536,"MEAN_MOTION_DOT":0.00018973,"MEAN_MOTION_DDOT":0},{"OBJECT_NAME":"SL-3 R\/B","OBJECT_ID":"1983-003B","EPOCH":"2026-03-09T21:31:00.897888","MEAN_MOTION":15.34640469,"ECCENTRICITY":0.00285789,"INCLINATION":81.155,"RA_OF_ASC_NODE":261.9078,"ARG_OF_PERICENTER":155.4571,"MEAN_ANOMALY":204.8036,"EPHEMERIS_TYPE":0,"CLASSIFICATION_TYPE":"U","NORAD_CAT_ID":13771,"ELEMENT_SET_NO":999,"REV_AT_EPOCH":35642,"BSTAR":0.00033440366,"MEAN_MOTION_DOT":0.00011405,"MEAN_MOTION_DDOT":0}]
